
# Worst residual: 93.99 km
# MJD 60615.000000 (2024 Nov  1  0:00)
A11dXi4 = A11e7Kj
1 79902U 24999ZYT 24306.49919926  .00000000  00000-0  00000-0 0 25565
2 79902 038.1875 351.6922 7126998 246.3713 099.9880 01.02430113    05

# Worst residual: 94.72 km
# MJD 60616.000000 (2024 Nov  2  0:00)
A11dXi4 = A11e7Kj
1 79902U 24999ZYT 24307.49919926  .00000000  00000-0  00000-0 0 25566
2 79902 038.1528 351.5176 7143444 246.8868 108.2993 01.02413231    02

# Worst residual: 93.25 km
# MJD 60617.000000 (2024 Nov  3  0:00)
A11dXi4 = A11e7Kj
1 79902U 24999ZYT 24308.49919926  .00000000  00000-0  00000-0 0 25567
2 79902 038.1220 351.3508 7159098 247.4000 116.6014 01.02402263    05

# Worst residual: 88.83 km
# MJD 60618.000000 (2024 Nov  4  0:00)
A11dXi4 = A11e7Kj
1 79902U 24999ZYT 24309.49919926  .00000000  00000-0  00000-0 0 25568
2 79902 038.0846 351.1636 7174429 247.9217 124.9030 01.02382293    08

# Worst residual: 97.92 km
# MJD 60619.000000 (2024 Nov  5  0:00)
A11dXi4 = A11e7Kj
1 79902U 24999ZYT 24310.49919926  .00000000  00000-0  00000-0 0 25560
2 79902 038.0483 350.9728 7188149 248.4546 133.2080 01.02365715    07

# Worst residual: 88.14 km
# MJD 60620.000000 (2024 Nov  6  0:00)
A11dXi4 = A11e7Kj
1 79902U 24999ZYT 24311.49919926  .00000000  00000-0  00000-0 0 25561
2 79902 038.0177 350.7877 7202177 248.9723 141.5211 01.02358198    05

# Worst residual: 78.86 km
# MJD 60621.000000 (2024 Nov  7  0:00)
A11dXi4 = A11e7Kj
1 79902U 24999ZYT 24312.49919926  .00000000  00000-0  00000-0 0 25562
2 79902 037.9792 350.5813 7215959 249.5148 149.8204 01.02342587    02

# Worst residual: 66.10 km
# MJD 60622.000000 (2024 Nov  8  0:00)
A11dXi4 = A11e7Kj
1 79902U 24999ZYT 24313.49919926  .00000000  00000-0  00000-0 0 25563
2 79902 037.9440 350.3875 7228480 250.0510 158.1166 01.02337440    03

# Worst residual: 50.42 km
# MJD 60623.000000 (2024 Nov  9  0:00)
A11dXi4 = A11e7Kj
1 79902U 24999ZYT 24314.49919926  .00000000  00000-0  00000-0 0 25564
2 79902 037.9100 350.1904 7240316 250.5846 166.4113 01.02331256    09

# Worst residual: 34.56 km
# MJD 60624.000000 (2024 Nov 10  0:00)
A11dXi4 = A11e7Kj
1 79902U 24999ZYT 24315.49919926  .00000000  00000-0  00000-0 0 25565
2 79902 037.8732 349.9731 7250635 251.1334 174.7149 01.02318817    06

# Worst residual: 38.59 km
# MJD 60625.000000 (2024 Nov 11  0:00)
A11dXi4 = A11e7Kj
1 79902U 24999ZYT 24316.49919926  .00000000  00000-0  00000-0 0 25566
2 79902 037.8421 349.7641 7261308 251.6670 183.0309 01.02313608    00

# Worst residual: 41.24 km
# MJD 60626.000000 (2024 Nov 12  0:00)
A11dXi4 = A11e7Kj
1 79902U 24999ZYT 24317.49919926  .00000000  00000-0  00000-0 0 25567
2 79902 037.8108 349.5577 7272481 252.1966 191.3494 01.02311761    01

# Worst residual: 39.47 km
# MJD 60627.000000 (2024 Nov 13  0:00)
A11dXi4 = A11e7Kj
1 79902U 24999ZYT 24318.49919926  .00000000  00000-0  00000-0 0 25568
2 79902 037.7811 349.3561 7284517 252.7273 199.6608 01.02317176    06

# Worst residual: 35.08 km
# MJD 60628.000000 (2024 Nov 14  0:00)
A11dXi4 = A11e7Kj
1 79902U 24999ZYT 24319.49919926  .00000000  00000-0  00000-0 0 25569
2 79902 037.7475 349.1358 7296277 253.2712 207.9708 01.02322112    04

# Worst residual: 41.82 km
# MJD 60629.000000 (2024 Nov 15  0:00)
A11dXi4 = A11e7Kj
1 79902U 24999ZYT 24320.49919926  .00000000  00000-0  00000-0 0 25561
2 79902 037.7130 348.9186 7308416 253.8191 216.2649 01.02336735    07

# Worst residual: 54.24 km
# MJD 60630.000000 (2024 Nov 16  0:00)
A11dXi4 = A11e7Kj
1 79902U 24999ZYT 24321.49919926  .00000000  00000-0  00000-0 0 25562
2 79902 037.6784 348.6706 7320635 254.4058 224.5374 01.02356500    01

# Worst residual: 70.27 km
# MJD 60631.000000 (2024 Nov 17  0:00)
A11dXi4 = A11e7Kj
1 79902U 24999ZYT 24322.49919926  .00000000  00000-0  00000-0 0 25563
2 79902 037.6530 348.4410 7330181 254.9790 232.8011 01.02369198    02

# Worst residual: 77.73 km
# MJD 60632.000000 (2024 Nov 18  0:00)
A11dXi4 = A11e7Kj
1 79902U 24999ZYT 24323.49919926  .00000000  00000-0  00000-0 0 25564
2 79902 037.6250 348.2071 7338532 255.5556 241.0655 01.02382694    09

# Worst residual: 81.29 km
# MJD 60633.000000 (2024 Nov 19  0:00)
A11dXi4 = A11e7Kj
1 79902U 24999ZYT 24324.49919926  .00000000  00000-0  00000-0 0 25565
2 79902 037.5986 347.9763 7345597 256.1238 249.3443 01.02395751    05

# Worst residual: 87.60 km
# MJD 60634.000000 (2024 Nov 20  0:00)
A11dXi4 = A11e7Kj
1 79902U 24999ZYT 24325.49919926  .00000000  00000-0  00000-0 0 25566
2 79902 037.5729 347.7362 7352801 256.6948 257.6363 01.02420231    07

# Worst residual: 101.27 km
# MJD 60635.000000 (2024 Nov 21  0:00)
A11dXi4 = A11e7Kj
1 79902U 24999ZYT 24326.49919926  .00000000  00000-0  00000-0 0 25567
2 79902 037.5481 347.5082 7359876 257.2536 265.9365 01.02434249    06

# Worst residual: 104.15 km
# MJD 60636.000000 (2024 Nov 22  0:00)
A11dXi4 = A11e7Kj
1 79902U 24999ZYT 24327.49919926  .00000000  00000-0  00000-0 0 25568
2 79902 037.5259 347.2801 7367734 257.8190 274.2250 01.02452293    04

# Worst residual: 105.37 km
# MJD 60637.000000 (2024 Nov 23  0:00)
A11dXi4 = A11e7Kj
1 79902U 24999ZYT 24328.49919926  .00000000  00000-0  00000-0 0 25569
2 79902 037.5026 347.0400 7372746 258.3956 282.5041 01.02473375    08

# Worst residual: 105.67 km
# MJD 60638.000000 (2024 Nov 24  0:00)
A11dXi4 = A11e7Kj
1 79902U 24999ZYT 24329.49919926  .00000000  00000-0  00000-0 0 25560
2 79902 037.4817 346.8068 7377576 258.9661 290.7916 01.02490423    02

# Worst residual: 104.79 km
# MJD 60639.000000 (2024 Nov 25  0:00)
A11dXi4 = A11e7Kj
1 79902U 24999ZYT 24330.49919926  .00000000  00000-0  00000-0 0 25562
2 79902 037.4615 346.5709 7381909 259.5360 299.0910 01.02509160    00

# Worst residual: 99.32 km
# MJD 60640.000000 (2024 Nov 26  0:00)
A11dXi4 = A11e7Kj
1 79902U 24999ZYT 24331.49919926  .00000000  00000-0  00000-0 0 25563
2 79902 037.4427 346.3349 7385792 260.1070 307.3908 01.02529688    06

# Worst residual: 96.51 km
# MJD 60641.000000 (2024 Nov 27  0:00)
A11dXi4 = A11e7Kj
1 79902U 24999ZYT 24332.49919926  .00000000  00000-0  00000-0 0 25564
2 79902 037.4250 346.1022 7388441 260.6787 315.6821 01.02559163    07

# Worst residual: 95.44 km
# MJD 60642.000000 (2024 Nov 28  0:00)
A11dXi4 = A11e7Kj
1 79902U 24999ZYT 24333.49919926  .00000000  00000-0  00000-0 0 25565
2 79902 037.4090 345.8680 7391268 261.2502 323.9843 01.02571696    09

# Worst residual: 88.11 km
# MJD 60643.000000 (2024 Nov 29  0:00)
A11dXi4 = A11e7Kj
1 79902U 24999ZYT 24334.49919926  .00000000  00000-0  00000-0 0 25566
2 79902 037.3985 345.6628 7392845 261.7921 332.2932 01.02582949    08

# Worst residual: 84.10 km
# MJD 60644.000000 (2024 Nov 30  0:00)
A11dXi4 = A11e7Kj
1 79902U 24999ZYT 24335.49919926  .00000000  00000-0  00000-0 0 25567
2 79902 037.3791 345.4039 7393330 262.3788 340.6204 01.02607494    03
